{"type": "FeatureCollection", "features": [ {"type": "Feature", "properties": {"norad_id": 30013, "name": "FENGYUN 1C DEB", "group": "fengyun-1c-debris", "lat": -9.630575247797903, "lon": 4.1929335104796115, "alt_km": 896.6435528447864, "timestamp": "2025-12-09T05:43:20.998917+00:00", "meta": {"OBJECT_NAME": "FENGYUN 1C DEB", "OBJECT_ID": "1999-025MN", "EPOCH": "2025-12-08T20:14:06.489888", "MEAN_MOTION": 13.87822009, "ECCENTRICITY": 0.0128334, "INCLINATION": 99.5803, "RA_OF_ASC_NODE": 2.1453, "ARG_OF_PERICENTER": 54.3542, "MEAN_ANOMALY": 123.3325, "EPHEMERIS_TYPE": 0, "CLASSIFICATION_TYPE": "U", "NORAD_CAT_ID": 30013, "ELEMENT_SET_NO": 999, "REV_AT_EPOCH": 95627, "BSTAR": 0.00040469, "MEAN_MOTION_DOT": 4.67e-06, "MEAN_MOTION_DDOT": 0}, "tle": {"line1": "1 30013U 99025MN  25342.84313067  .00000467  00000+0  40469-3 0  9992", "line2": "2 30013  99.5803   2.1453 0128334  54.3542 123.3325 13.87822009956270"}}, "geometry": {"type": "Point", "coordinates": [4.1929335104796115, -9.630575247797903]}}, {"type": "Feature", "properties": {"norad_id": 30015, "name": "FENGYUN 1C DEB", "group": "fengyun-1c-debris", "lat": 24.060074715704012, "lon": -18.256104828614617, "alt_km": 797.9610206148545, "timestamp": "2025-12-09T05:43:20.998928+00:00", "meta": {"OBJECT_NAME": "FENGYUN 1C DEB", "OBJECT_ID": "1999-025MQ", "EPOCH": "2025-12-08T11:51:55.480896", "MEAN_MOTION": 14.30780957, "ECCENTRICITY": 0.0038436, "INCLINATION": 99.228, "RA_OF_ASC_NODE": 345.1172, "ARG_OF_PERICENTER": 137.021, "MEAN_ANOMALY": 17.5962, "EPHEMERIS_TYPE": 0, "CLASSIFICATION_TYPE": "U", "NORAD_CAT_ID": 30015, "ELEMENT_SET_NO": 999, "REV_AT_EPOCH": 98112, "BSTAR": 0.00099656641, "MEAN_MOTION_DOT": 2.584e-05, "MEAN_MOTION_DDOT": 0}, "tle": {"line1": "1 30015U 99025MQ  25342.49439214  .00002584  00000+0  99657-3 0  9993", "line2": "2 30015  99.2280 345.1172 0038436 137.0210  17.5962 14.30780957981127"}}, "geometry": {"type": "Point", "coordinates": [-18.256104828614617, 24.060074715704012]}}, {"type": "Feature", "properties": {"norad_id": 30016, "name": "FENGYUN 1C DEB", "group": "fengyun-1c-debris", "lat": -80.71399915522636, "lon": 68.36748018257731, "alt_km": 666.8339872382394, "timestamp": "2025-12-09T05:43:20.998938+00:00", "meta": {"OBJECT_NAME": "FENGYUN 1C DEB", "OBJECT_ID": "1999-025MR", "EPOCH": "2025-12-08T19:32:22.374240", "MEAN_MOTION": 14.78341028, "ECCENTRICITY": 0.0047226, "INCLINATION": 98.9055, "RA_OF_ASC_NODE": 354.3649, "ARG_OF_PERICENTER": 53.167, "MEAN_ANOMALY": 123.0543, "EPHEMERIS_TYPE": 0, "CLASSIFICATION_TYPE": "U", "NORAD_CAT_ID": 30016, "ELEMENT_SET_NO": 999, "REV_AT_EPOCH": 99395, "BSTAR": 0.0030027, "MEAN_MOTION_DOT": 0.00022253, "MEAN_MOTION_DDOT": 0}, "tle": {"line1": "1 30016U 99025MR  25342.81414785  .00022253  00000+0  30027-2 0  9996", "line2": "2 30016  98.9055 354.3649 0047226  53.1670 123.0543 14.78341028993956"}}, "geometry": {"type": "Point", "coordinates": [68.36748018257731, -80.71399915522636]}}, {"type": "Feature", "properties": {"norad_id": 30017, "name": "FENGYUN 1C DEB", "group": "fengyun-1c-debris", "lat": -80.88018485722486, "lon": 101.35283486718191, "alt_km": 684.5152508078454, "timestamp": "2025-12-09T05:43:20.998949+00:00", "meta": {"OBJECT_NAME": "FENGYUN 1C DEB", "OBJECT_ID": "1999-025MS", "EPOCH": "2025-12-08T15:20:27.179808", "MEAN_MOTION": 14.61182312, "ECCENTRICITY": 0.0217281, "INCLINATION": 98.7546, "RA_OF_ASC_NODE": 26.99, "ARG_OF_PERICENTER": 187.694, "MEAN_ANOMALY": 172.0908, "EPHEMERIS_TYPE": 0, "CLASSIFICATION_TYPE": "U", "NORAD_CAT_ID": 30017, "ELEMENT_SET_NO": 999, "REV_AT_EPOCH": 384, "BSTAR": 0.00032546, "MEAN_MOTION_DOT": 2.176e-05, "MEAN_MOTION_DDOT": 0}, "tle": {"line1": "1 30017U 99025MS  25342.63920347  .00002176  00000+0  32546-3 0  9994", "line2": "2 30017  98.7546  26.9900 0217281 187.6940 172.0908 14.61182312  3845"}}, "geometry": {"type": "Point", "coordinates": [101.35283486718191, -80.88018485722486]}}, {"type": "Feature", "properties": {"norad_id": 30018, "name": "FENGYUN 1C DEB", "group": "fengyun-1c-debris", "lat": 27.946628636588162, "lon": -109.70608182801215, "alt_km": 602.0744386018778, "timestamp": "2025-12-09T05:43:20.998959+00:00", "meta": {"OBJECT_NAME": "FENGYUN 1C DEB", "OBJECT_ID": "1999-025MT", "EPOCH": "2025-12-08T19:48:48.078144", "MEAN_MOTION": 14.73107762, "ECCENTRICITY": 0.0116654, "INCLINATION": 98.756, "RA_OF_ASC_NODE": 65.1588, "ARG_OF_PERICENTER": 207.7289, "MEAN_ANOMALY": 276.6535, "EPHEMERIS_TYPE": 0, "CLASSIFICATION_TYPE": "U", "NORAD_CAT_ID": 30018, "ELEMENT_SET_NO": 999, "REV_AT_EPOCH": 379, "BSTAR": 0.0013526, "MEAN_MOTION_DOT": 9.651e-05, "MEAN_MOTION_DDOT": 0}, "tle": {"line1": "1 30018U 99025MT  25342.82555646  .00009651  00000+0  13526-2 0  9993", "line2": "2 30018  98.7560  65.1588 0116654 207.7289 276.6535 14.73107762  3791"}}, "geometry": {"type": "Point", "coordinates": [-109.70608182801215, 27.946628636588162]}}, {"type": "Feature", "properties": {"norad_id": 30020, "name": "FENGYUN 1C DEB", "group": "fengyun-1c-debris", "lat": 31.568097957639008, "lon": -18.35289976062228, "alt_km": 786.1079393674381, "timestamp": "2025-12-09T05:43:20.998970+00:00", "meta": {"OBJECT_NAME": "FENGYUN 1C DEB", "OBJECT_ID": "1999-025MV", "EPOCH": "2025-12-08T18:25:44.626368", "MEAN_MOTION": 14.04454994, "ECCENTRICITY": 0.0184013, "INCLINATION": 98.847, "RA_OF_ASC_NODE": 346.6798, "ARG_OF_PERICENTER": 81.5626, "MEAN_ANOMALY": 94.2284, "EPHEMERIS_TYPE": 0, "CLASSIFICATION_TYPE": "U", "NORAD_CAT_ID": 30020, "ELEMENT_SET_NO": 999, "REV_AT_EPOCH": 96602, "BSTAR": 0.00096437, "MEAN_MOTION_DOT": 1.747e-05, "MEAN_MOTION_DDOT": 0}, "tle": {"line1": "1 30020U 99025MV  25342.76787762  .00001747  00000+0  96437-3 0  9996", "line2": "2 30020  98.8470 346.6798 0184013  81.5626  94.2284 14.04454994966027"}}, "geometry": {"type": "Point", "coordinates": [-18.35289976062228, 31.568097957639008]}}, {"type": "Feature", "properties": {"norad_id": 30021, "name": "FENGYUN 1C DEB", "group": "fengyun-1c-debris", "lat": -9.433857730364952, "lon": 153.3766065934891, "alt_km": 896.3981373310216, "timestamp": "2025-12-09T05:43:20.998980+00:00", "meta": {"OBJECT_NAME": "FENGYUN 1C DEB", "OBJECT_ID": "1999-025MW", "EPOCH": "2025-12-08T20:49:29.158176", "MEAN_MOTION": 14.04888321, "ECCENTRICITY": 0.0072059, "INCLINATION": 98.8351, "RA_OF_ASC_NODE": 334.4965, "ARG_OF_PERICENTER": 298.0462, "MEAN_ANOMALY": 178.1629, "EPHEMERIS_TYPE": 0, "CLASSIFICATION_TYPE": "U", "NORAD_CAT_ID": 30021, "ELEMENT_SET_NO": 999, "REV_AT_EPOCH": 96877, "BSTAR": 0.00034063, "MEAN_MOTION_DOT": 5.16e-06, "MEAN_MOTION_DDOT": 0}, "tle": {"line1": "1 30021U 99025MW  25342.86769859  .00000516  00000+0  34063-3 0  9995", "line2": "2 30021  98.8351 334.4965 0072059 298.0462 178.1629 14.04888321968770"}}, "geometry": {"type": "Point", "coordinates": [153.3766065934891, -9.433857730364952]}}, {"type": "Feature", "properties": {"norad_id": 30022, "name": "FENGYUN 1C DEB", "group": "fengyun-1c-debris", "lat": -41.75406088917511, "lon": 3.0437261364784214, "alt_km": 795.017108014933, "timestamp": "2025-12-09T05:43:20.998991+00:00", "meta": {"OBJECT_NAME": "FENGYUN 1C DEB", "OBJECT_ID": "1999-025MX", "EPOCH": "2025-12-08T20:19:52.508928", "MEAN_MOTION": 14.23130633, "ECCENTRICITY": 0.0066594, "INCLINATION": 99.0724, "RA_OF_ASC_NODE": 190.8408, "ARG_OF_PERICENTER": 280.4551, "MEAN_ANOMALY": 98.8712, "EPHEMERIS_TYPE": 0, "CLASSIFICATION_TYPE": "U", "NORAD_CAT_ID": 30022, "ELEMENT_SET_NO": 999, "REV_AT_EPOCH": 98137, "BSTAR": 0.00014726, "MEAN_MOTION_DOT": 2.92e-06, "MEAN_MOTION_DDOT": 0}, "tle": {"line1": "1 30022U 99025MX  25342.84713552  .00000292  00000+0  14726-3 0  9998", "line2": "2 30022  99.0724 190.8408 0066594 280.4551  98.8712 14.23130633981374"}}, "geometry": {"type": "Point", "coordinates": [3.0437261364784214, -41.75406088917511]}}, {"type": "Feature", "properties": {"norad_id": 30023, "name": "FENGYUN 1C DEB", "group": "fengyun-1c-debris", "lat": -64.02390370937066, "lon": -163.68690507866918, "alt_km": 885.7976754668471, "timestamp": "2025-12-09T05:43:20.999002+00:00", "meta": {"OBJECT_NAME": "FENGYUN 1C DEB", "OBJECT_ID": "1999-025MY", "EPOCH": "2025-12-08T19:54:21.504384", "MEAN_MOTION": 14.11855195, "ECCENTRICITY": 0.0047207, "INCLINATION": 99.2941, "RA_OF_ASC_NODE": 176.25, "ARG_OF_PERICENTER": 74.3485, "MEAN_ANOMALY": 302.6385, "EPHEMERIS_TYPE": 0, "CLASSIFICATION_TYPE": "U", "NORAD_CAT_ID": 30023, "ELEMENT_SET_NO": 999, "REV_AT_EPOCH": 97141, "BSTAR": 0.00072924, "MEAN_MOTION_DOT": 1.298e-05, "MEAN_MOTION_DDOT": 0}, "tle": {"line1": "1 30023U 99025MY  25342.82941556  .00001298  00000+0  72924-3 0  9995", "line2": "2 30023  99.2941 176.2500 0047207  74.3485 302.6385 14.11855195971415"}}, "geometry": {"type": "Point", "coordinates": [-163.68690507866918, -64.02390370937066]}}, {"type": "Feature", "properties": {"norad_id": 30028, "name": "FENGYUN 1C DEB", "group": "fengyun-1c-debris", "lat": 23.917683847292235, "lon": -28.09537593846571, "alt_km": 807.6566078925807, "timestamp": "2025-12-09T05:43:20.999013+00:00", "meta": {"OBJECT_NAME": "FENGYUN 1C DEB", "OBJECT_ID": "1999-025ND", "EPOCH": "2025-12-08T13:40:19.628832", "MEAN_MOTION": 14.55463892, "ECCENTRICITY": 0.0174188, "INCLINATION": 98.1452, "RA_OF_ASC_NODE": 334.8939, "ARG_OF_PERICENTER": 241.3762, "MEAN_ANOMALY": 239.703, "EPHEMERIS_TYPE": 0, "CLASSIFICATION_TYPE": "U", "NORAD_CAT_ID": 30028, "ELEMENT_SET_NO": 999, "REV_AT_EPOCH": 99661, "BSTAR": 0.00071762, "MEAN_MOTION_DOT": 3.776e-05, "MEAN_MOTION_DDOT": 0}, "tle": {"line1": "1 30028U 99025ND  25342.56967163  .00003776  00000+0  71762-3 0  9995", "line2": "2 30028  98.1452 334.8939 0174188 241.3762 239.7030 14.55463892996619"}}, "geometry": {"type": "Point", "coordinates": [-28.09537593846571, 23.917683847292235]}}]}